[{"OBJECT_NAME":"KHAYYAM","OBJECT_ID":"2022-096A","EPOCH":"2026-03-09T23:16:46.350624","MEAN_MOTION":15.24771015,"ECCENTRICITY":0.00024081,"INCLINATION":97.351,"RA_OF_ASC_NODE":334.9969,"ARG_OF_PERICENTER":70.558,"MEAN_ANOMALY":289.5917,"EPHEMERIS_TYPE":0,"CLASSIFICATION_TYPE":"U","NORAD_CAT_ID":53370,"ELEMENT_SET_NO":999,"REV_AT_EPOCH":19946,"BSTAR":0.00026923471,"MEAN_MOTION_DOT":6.603e-5,"MEAN_MOTION_DDOT":0},{"OBJECT_NAME":"OBJECT D","OBJECT_ID":"2021-050D","EPOCH":"2026-03-09T22:38:42.248256","MEAN_MOTION":15.23648479,"ECCENTRICITY":0.00079782,"INCLINATION":97.3398,"RA_OF_ASC_NODE":147.2286,"ARG_OF_PERICENTER":192.9806,"MEAN_ANOMALY":167.1228,"EPHEMERIS_TYPE":0,"CLASSIFICATION_TYPE":"U","NORAD_CAT_ID":48843,"ELEMENT_SET_NO":999,"REV_AT_EPOCH":26385,"BSTAR":0.00026174716,"MEAN_MOTION_DOT":6.21e-5,"MEAN_MOTION_DDOT":0}]
